{
    "links": {
        "self": "http://www.neowsapp.com/rest/v1/neo/3304649?api_key=iIulBulltgU6a56xZRHN4H3l9WmuAYTsLGpBGhQ2"
    },
    "id": "3304649",
    "neo_reference_id": "3304649",
    "name": "(2005 WG4)",
    "designation": "2005 WG4",
    "nasa_jpl_url": "http://ssd.jpl.nasa.gov/sbdb.cgi?sstr=3304649",
    "absolute_magnitude_h": 24.9,
    "estimated_diameter": {
        "kilometers": {
            "estimated_diameter_min": 0.0278326768,
            "estimated_diameter_max": 0.0622357573
        },
        "meters": {
            "estimated_diameter_min": 27.8326768072,
            "estimated_diameter_max": 62.2357573367
        },
        "miles": {
            "estimated_diameter_min": 0.0172944182,
            "estimated_diameter_max": 0.0386714948
        },
        "feet": {
            "estimated_diameter_min": 91.3145593761,
            "estimated_diameter_max": 204.1855621004
        }
    },
    "is_potentially_hazardous_asteroid": false,
    "close_approach_data": [
        {
            "close_approach_date": "2005-11-09",
            "close_approach_date_full": "2005-Nov-09 09:24",
            "epoch_date_close_approach": 1131528240000,
            "relative_velocity": {
                "kilometers_per_second": "11.9290852578",
                "kilometers_per_hour": "42944.7069281164",
                "miles_per_hour": "26684.1708131954"
            },
            "miss_distance": {
                "astronomical": "0.0709804079",
                "lunar": "27.6113786731",
                "kilometers": "10618517.833571173",
                "miles": "6598041.0265532674"
            },
            "orbiting_body": "Earth"
        }
    ],
    "orbital_data": {
        "orbit_id": "7",
        "orbit_determination_date": "2017-04-06 09:09:47",
        "first_observation_date": "2005-11-25",
        "last_observation_date": "2005-12-03",
        "data_arc_in_days": 8,
        "observations_used": 20,
        "orbit_uncertainty": "9",
        "minimum_orbit_intersection": ".0700072",
        "jupiter_tisserand_invariant": "3.190",
        "epoch_osculation": "2453703.5",
        "eccentricity": ".6057592808490159",
        "semi_major_axis": "2.46175589086141",
        "inclination": "10.39490929887524",
        "ascending_node_longitude": "63.66272275972714",
        "orbital_period": "1410.801476866141",
        "perihelion_distance": ".9705244127873739",
        "perihelion_argument": "309.3071697511988",
        "aphelion_distance": "3.952987368935446",
        "perihelion_time": "2453657.384109557447",
        "mean_anomaly": "11.76758093292971",
        "mean_motion": ".2551741020286424",
        "equinox": "J2000",
        "orbit_class": {
            "orbit_class_type": "APO",
            "orbit_class_description": "Near-Earth asteroid orbits which cross the Earth’s orbit similar to that of 1862 Apollo",
            "orbit_class_range": "a (semi-major axis) > 1.0 AU; q (perihelion) < 1.017 AU"
        }
    },
    "is_sentry_object": false
}